NORAD_CAT_ID,OBJECT_NAME,OBJECT_TYPE,EPOCH,MEAN_MOTION,ECCENTRICITY,INCLINATION,RA_OF_ASC_NODE,ARG_OF_PERICENTER,MEAN_ANOMALY,BSTAR,MEAN_MOTION_DOT,MEAN_MOTION_DDOT,TLE_LINE0,TLE_LINE1,TLE_LINE2,SEMIMAJOR_AXIS,PERIOD,APOGEE,PERIGEE,DECAYED
49167.0,STARLINK-3054,PAYLOAD,2021-09-28 14:00:01,15.69749632,0.0003512,70.0004,86.1685,277.5755,99.2938,-4.148100000000001e-05,-5.161e-05,0.0,0 STARLINK-3054,1 49167U 21082AP  21271.58334491 -.00005161  00000-0 -41481-4 0  9997,2 49167  70.0004  86.1685 0003512 277.5755  99.2938 15.69749632  3581,6737.75,91.734,361.982,357.249,0.0
49167.0,STARLINK-3054,PAYLOAD,2021-09-29 14:00:01,15.69823072,0.0003502,70.0016,83.3648,272.4207,354.1238,-0.0012904,-0.00151969,0.0,0 STARLINK-3054,1 49167U 21082AP  21272.58334491 -.00151969  00000-0 -12904-2 0  9992,2 49167  70.0016  83.3648 0003502 272.4207 354.1238 15.69823072  3742,6737.54,91.73,361.765,357.046,0.0
49167.0,STARLINK-3054,PAYLOAD,2021-09-29 22:00:01,15.69706385,0.0003548,70.0014,82.4276,280.957,68.8188,0.00095861,0.00115611,0.0,0 STARLINK-3054,1 49167U 21082AP  21272.91668981  .00115611  00000-0  95861-3 0  9999,2 49167  70.0014  82.4276 0003548 280.9570  68.8188 15.69706385  3799,6737.874,91.737,362.13,357.348,0.0
49167.0,STARLINK-3054,PAYLOAD,2021-09-30 06:00:02,15.69653703,0.0003392,70.0015,81.4911,274.8657,157.8711,0.0005279,0.00063032,0.0,0 STARLINK-3054,1 49167U 21082AP  21273.25002315  .00063032  00000-0  52790-3 0  9993,2 49167  70.0015  81.4911 0003392 274.8657 157.8711 15.69653703  3842,6738.025,91.74,362.175,357.60400000000016,0.0
49167.0,STARLINK-3054,PAYLOAD,2021-10-01 06:00:02,15.69701969,0.0003478999999999,70.0011,78.6805,275.2092,46.75100000000001,0.0005465,0.0006541,0.0,0 STARLINK-3054,1 49167U 21082AP  21274.25002315  .00065410  00000-0  54650-3 0  9993,2 49167  70.0011  78.6805 0003479 275.2092  46.7510 15.69701969  4002,6737.887,91.737,362.096,357.408,0.0
49167.0,STARLINK-3054,PAYLOAD,2021-10-01 14:00:01,15.69777579,0.0003577,70.0012,77.7424,275.29900000000004,129.6875,-0.00024509,-0.00029403,0.0,0 STARLINK-3054,1 49167U 21082AP  21274.58334491 -.00029403  00000-0 -24509-3 0  9996,2 49167  70.0012  77.7424 0003577 275.2990 129.6875 15.69777579  3088,6737.67,91.733,361.945,357.125,0.0
49167.0,STARLINK-3054,PAYLOAD,2021-10-01 22:00:00,15.69755875,0.0003545,70.001,76.8065,281.4578,206.6905,0.00051167,0.00061335,0.0,0 STARLINK-3054,1 49167U 21082AP  21274.91667824  .00061335  00000-0  51167-3 0  9990,2 49167  70.0010  76.8065 0003545 281.4578 206.6905 15.69755875  3145,6737.732,91.734,361.986,357.209,0.0
49167.0,STARLINK-3054,PAYLOAD,2021-10-02 06:00:00,15.6968965,0.0003653,70.0003,75.8629,272.7829,298.5006,0.00077393,0.00092982,0.0,0 STARLINK-3054,1 49167U 21082AP  21275.25001157  .00092982  00000-0  77393-3 0  9990,2 49167  70.0003  75.8629 0003653 272.7829 298.5006 15.69689650  4155,6737.922,91.738,362.24800000000016,357.326,0.0
49167.0,STARLINK-3054,PAYLOAD,2021-10-02 22:00:00,15.69785448,0.0003531,70.0008,73.9956,282.8003,94.8804,-0.00015905,-0.00019185,0.0,0 STARLINK-3054,1 49167U 21082AP  21275.91667824 -.00019185  00000-0 -15905-3 0  9999,2 49167  70.0008  73.9956 0003531 282.8003  94.8804 15.69785448  4260,6737.648,91.732,361.892,357.134,0.0
49167.0,STARLINK-3054,PAYLOAD,2021-10-03 14:00:01,15.69767439,0.0003662,70.0008,72.1207,277.5079,266.4462,-0.00011329,-0.00013725,0.0,0 STARLINK-3054,1 49167U 21082AP  21276.58334491 -.00013725  00000-0 -11329-3 0  9994,2 49167  70.0008  72.1207 0003662 277.5079 266.4462 15.69767439  3401,6737.699000000001,91.733,362.032,357.097,0.0
49167.0,STARLINK-3054,PAYLOAD,2021-10-03 22:00:01,15.69763358,0.0003561,70.0008,71.1843,282.8856,344.2561,-0.00052694,-0.00062688,0.0,0 STARLINK-3054,1 49167U 21082AP  21276.91668981 -.00062688  00000-0 -52694-3 0  9997,2 49167  70.0008  71.1843 0003561 282.8856 344.2561 15.69763358  4420,6737.7109999999975,91.734,361.975,357.177,0.0
49167.0,STARLINK-3054,PAYLOAD,2021-10-04 14:00:01,15.69753264,0.0003458,70.0017,69.3102,279.0488,154.2204,-0.00022616,-0.00027128,0.0,0 STARLINK-3054,1 49167U 21082AP  21277.58334491 -.00027128  00000-0 -22616-3 0  9998,2 49167  70.0017  69.3102 0003458 279.0488 154.2204 15.69753264  4520,6737.74,91.734,361.935,357.275,0.0
49167.0,STARLINK-3054,PAYLOAD,2021-10-04 22:00:00,15.69734335,0.0003543,70.0011,68.3738,283.3141,233.0678,0.0002842,0.00033831,0.0,0 STARLINK-3054,1 49167U 21082AP  21277.91667824  .00033831  00000-0  28420-3 0  9999,2 49167  70.0011  68.3738 0003543 283.3141 233.0678 15.69734335  3626,6737.794,91.735,362.046,357.272,0.0
49167.0,STARLINK-3054,PAYLOAD,2021-10-05 04:00:00,15.69740411,0.0003515,70.0013,67.6709,279.0087,209.7214,0.00024038,0.00028571,0.0,0 STARLINK-3054,1 49167U 21082AP  21278.16667824  .00028571  00000-0  24038-3 0  9993,2 49167  70.0013  67.6709 0003515 279.0087 209.7214 15.69740411  4616,6737.776999999999,91.735,362.01,357.273,0.0
49167.0,STARLINK-3054,PAYLOAD,2021-10-05 14:00:01,15.69792603,0.0003582,70.0016,66.4998,279.0027,43.6345,-0.00023663,-0.00028417,0.0,0 STARLINK-3054,1 49167U 21082AP  21278.58334491 -.00028417  00000-0 -23663-3 0  9994,2 49167  70.0016  66.4998 0003582 279.0027  43.6345 15.69792603  3725,6737.627,91.732,361.906,357.079,0.0
49167.0,STARLINK-3054,PAYLOAD,2021-10-05 22:00:01,15.69802407,0.0003712,70.0013,65.5627,284.2628,121.6048,-0.00060118,-0.00071533,0.0,0 STARLINK-3054,1 49167U 21082AP  21278.91668981 -.00071533  00000-0 -60118-3 0  9998,2 49167  70.0013  65.5627 0003712 284.2628 121.6048 15.69802407  3744,6737.599,91.731,361.965,356.963,0.0
49167.0,STARLINK-3054,PAYLOAD,2021-10-06 06:00:00,15.69702128,0.0003768,70.0018,64.6258,277.6049,211.3682,0.0008102,0.00097453,0.0,0 STARLINK-3054,1 49167U 21082AP  21279.25001157  .00097453  00000-0  81020-3 0  9994,2 49167  70.0018  64.6258 0003768 277.6049 211.3682 15.69702128  4788,6737.886,91.737,362.29,357.212,0.0
49167.0,STARLINK-3054,PAYLOAD,2021-10-06 14:00:01,15.69777849,0.0003818,70.0022,63.6886,280.2093,291.9404,-8.567799999999999e-05,-0.00010441,0.0,0 STARLINK-3054,1 49167U 21082AP  21279.58335648 -.00010441  00000-0 -85678-4 0  9993,2 49167  70.0022  63.6886 0003818 280.2093 291.9404 15.69777849  3770,6737.67,91.733,362.107,356.962,0.0
49167.0,STARLINK-3054,PAYLOAD,2021-10-06 22:00:00,15.69804059,0.000386,70.0021,62.752,283.452,11.7779,-0.00065463,-0.00077824,0.0,0 STARLINK-3054,1 49167U 21082AP  21279.91667824 -.00077824  00000-0 -65463-3 0  9991,2 49167  70.0021  62.7520 0003860 283.4520  11.7779 15.69804059  4892,6737.595,91.731,362.06,356.8590000000001,0.0
49167.0,STARLINK-3054,PAYLOAD,2021-10-07 14:00:01,15.69784998,0.0003666,70.0024,60.8785,281.1763,180.3512,-0.00016047,-0.00019354,0.0,0 STARLINK-3054,1 49167U 21082AP  21280.58334491 -.00019354  00000-0 -16047-3 0  9995,2 49167  70.0024  60.8785 0003666 281.1763 180.3512 15.69784998  3734,6737.649,91.732,361.984,357.0440000000001,0.0
49167.0,STARLINK-3054,PAYLOAD,2021-10-07 22:00:00,15.69786621,0.0003575,70.002,59.9416,285.8308,258.8421,-0.00064773,-0.00076953,0.0,0 STARLINK-3054,1 49167U 21082AP  21280.91667824 -.00076953  00000-0 -64773-3 0  9998,2 49167  70.0020  59.9416 0003575 285.8308 258.8421 15.69786621  5046,6737.644,91.732,361.918,357.101,0.0
49167.0,STARLINK-3054,PAYLOAD,2021-10-08 14:00:01,15.69709019,0.000374,70.0014,58.06800000000001,281.7187,69.18,-8.5935e-05,-0.00010442,0.0,0 STARLINK-3054,1 49167U 21082AP  21281.58334491 -.00010442  00000-0 -85935-4 0  9998,2 49167  70.0014  58.0680 0003740 281.7187  69.1800 15.69709019  5158,6737.8669999999975,91.737,362.252,357.212,0.0
49167.0,STARLINK-3054,PAYLOAD,2021-10-08 22:00:00,15.69718881,0.0003786,70.0006,57.131,285.3232,148.6375,-7.8684e-07,-3.06e-06,0.0,0 STARLINK-3054,1 49167U 21082AP  21281.91667824 -.00000306  00000-0 -78684-6 0  9997,2 49167  70.0006  57.1310 0003786 285.3232 148.6375 15.69718881  3694,6737.8380000000025,91.736,362.254,357.152,0.0
49167.0,STARLINK-3054,PAYLOAD,2021-10-09 06:00:00,15.6971777,0.0003751,70.0006,56.1943,279.1529,237.9425,0.0010555,0.00127564,0.0,0 STARLINK-3054,1 49167U 21082AP  21282.25001157  .00127564  00000-0  10555-2 0  9999,2 49167  70.0006  56.1943 0003751 279.1529 237.9425 15.69717770  5255,6737.842,91.736,362.234,357.17900000000014,0.0
49167.0,STARLINK-3054,PAYLOAD,2021-10-09 14:00:01,15.69429356,0.0003919,70.0005,55.2511,283.8476,316.4290000000001,0.00386,0.00481714,0.0,0 STARLINK-3054,1 49167U 21082AP  21282.58335648  .00481714  00000-0  38600-2 0  9991,2 49167  70.0005  55.2511 0003919 283.8476 316.4290 15.69429356  5303,6738.667,91.753,363.173,357.891,0.0
49167.0,STARLINK-3054,PAYLOAD,2021-10-09 22:00:00,15.69774107,0.0003851,70.0004,54.3205,285.5526,37.754,-7.1787e-06,-1.07e-05,0.0,0 STARLINK-3054,1 49167U 21082AP  21282.91667824 -.00001070  00000-0 -71787-5 0  9993,2 49167  70.0004  54.3205 0003851 285.5526  37.7540 15.69774107  3724,6737.68,91.733,362.14,356.951,0.0
49167.0,STARLINK-3054,PAYLOAD,2021-10-10 06:00:00,15.69763645,0.00037,70.0006,53.3836,280.2305,126.2421,0.0003702,0.00044243,0.0,0 STARLINK-3054,1 49167U 21082AP  21283.25001157  .00044243  00000-0  37020-3 0  9999,2 49167  70.0006  53.3836 0003700 280.2305 126.2421 15.69763645  5410,6737.71,91.734,362.068,357.082,0.0
49167.0,STARLINK-3054,PAYLOAD,2021-10-10 14:00:01,15.69760141,0.0003712,70.001,52.4466,283.3946,206.2507,-0.00015756,-0.00018988,0.0,0 STARLINK-3054,1 49167U 21082AP  21283.58334491 -.00018988  00000-0 -15756-3 0  9996,2 49167  70.0010  52.4466 0003712 283.3946 206.2507 15.69760141  5469,6737.72,91.734,362.086,357.084,0.0
49167.0,STARLINK-3054,PAYLOAD,2021-10-10 22:00:01,15.69797532,0.0003724,70.0005,51.5095,285.4976,287.3329,-0.0010138,-0.00119775,0.0,0 STARLINK-3054,1 49167U 21082AP  21283.91668981 -.00119775  00000-0 -10138-2 0  9991,2 49167  70.0005  51.5095 0003724 285.4976 287.3329 15.69797532  3712,6737.613,91.732,361.987,356.969,0.0
